O3B FM10                
1 40348U 14083A   26065.81533533 -.00000026  00000+0  00000+0 0  9992
2 40348   0.0432 347.7342 0002686 356.4315  15.8207  5.00115243204773
O3B FM11                
1 40349U 14083B   26065.82805608 -.00000026  00000+0  00000+0 0  9999
2 40349   0.0568   0.4218 0003132 333.6061  25.9513  5.00115618204791
O3B FM12                
1 40350U 14083C   26062.45701119 -.00000028  00000+0  00000+0 0  9991
2 40350   0.0560 359.7796 0002643 337.6957  22.5061  5.00115945204637
O3B FM9                 
1 40351U 14083D   26065.88197959 -.00000026  00000+0  00000+0 0  9991
2 40351   0.0579   0.6785 0002732 343.7503  15.5577  5.00115924204958
ASTRA 2G                
1 40364U 14089A   26066.15768235  .00000147  00000+0  00000+0 0  9996
2 40364   0.0549 329.0080 0004111  62.6750 218.1241  1.00271899 40945
SES-9                   
1 41380U 16013A   26066.03088846 -.00000348  00000+0  00000+0 0  9998
2 41380   0.0414 309.9608 0001591  91.1075 243.0757  1.00271287 36411
SES-10                  
1 42432U 17017A   26066.11294596 -.00000275  00000+0  00000+0 0  9991
2 42432   0.0214  75.2424 0002629 279.2403 144.0905  1.00271716 32737
SES-15                  
1 42709U 17026A   26066.14628090  .00000057  00000+0  00000+0 0  9998
2 42709   0.0446 333.6430 0001005  26.6136  88.0888  1.00273335  6404
SES-11 (ECHOSTAR 105)   
1 42967U 17063A   26066.12961598 -.00000092  00000+0  00000+0 0  9996
2 42967   0.0276  64.5239 0002624 279.8065 122.2290  1.00272735 30700
SES-14                  
1 43175U 18012B   26066.00003498 -.00000281  00000+0  00000+0 0  9996
2 43175   0.0192  99.7422 0001039 253.5098 123.9590  1.00270381  6009
O3B FM15                
1 43231U 18024A   26065.94874338 -.00000026  00000+0  00000+0 0  9990
2 43231   0.0487   0.8766 0002685 341.1215  17.9873  5.00115720145915
O3B FM16                
1 43232U 18024B   26065.20155549 -.00000026  00000+0  00000+0 0  9996
2 43232   0.0450   2.8168 0002827 339.2721  17.8957  5.00115882145799
O3B FM14                
1 43233U 18024C   26065.84198153 -.00000026  00000+0  00000+0 0  9995
2 43233   0.0435   1.8148 0002845 344.5803  13.5921  5.00115670145834
O3B FM13                
1 43234U 18024D   26062.10991137 -.00000028  00000+0  00000+0 0  9997
2 43234   0.0485 331.6373 0004295 331.6147  56.6997  5.00115687145742
SES-12                  
1 43488U 18049A   26066.02828844 -.00000272  00000+0  00000+0 0  9995
2 43488   0.0180  84.2897 0001821 220.4205 325.1972  1.00270171 28393
O3B FM20                
1 44112U 19020A   26065.26833099 -.00000026  00000+0  00000+0 0  9990
2 44112   0.0518 359.6916 0002799 333.6749  26.6137  5.00115505126421
O3B FM19                
1 44113U 19020B   26065.89512278 -.00000026  00000+0  00000+0 0  9993
2 44113   0.0567 352.2118 0004312 343.7320  24.0309  5.00115814126324
