[{"OBJECT_NAME":"O3B FM10","OBJECT_ID":"2014-083A","EPOCH":"2026-03-06T19:34:04.972512","MEAN_MOTION":5.00115243,"ECCENTRICITY":0.0002686,"INCLINATION":0.0432,"RA_OF_ASC_NODE":347.7342,"ARG_OF_PERICENTER":356.4315,"MEAN_ANOMALY":15.8207,"EPHEMERIS_TYPE":0,"CLASSIFICATION_TYPE":"U","NORAD_CAT_ID":40348,"ELEMENT_SET_NO":999,"REV_AT_EPOCH":20477,"BSTAR":0,"MEAN_MOTION_DOT":-2.6e-7,"MEAN_MOTION_DDOT":0},{"OBJECT_NAME":"O3B FM11","OBJECT_ID":"2014-083B","EPOCH":"2026-03-06T19:52:24.045312","MEAN_MOTION":5.00115618,"ECCENTRICITY":0.0003132,"INCLINATION":0.0568,"RA_OF_ASC_NODE":0.4218,"ARG_OF_PERICENTER":333.6061,"MEAN_ANOMALY":25.9513,"EPHEMERIS_TYPE":0,"CLASSIFICATION_TYPE":"U","NORAD_CAT_ID":40349,"ELEMENT_SET_NO":999,"REV_AT_EPOCH":20479,"BSTAR":0,"MEAN_MOTION_DOT":-2.6e-7,"MEAN_MOTION_DDOT":0},{"OBJECT_NAME":"O3B FM12","OBJECT_ID":"2014-083C","EPOCH":"2026-03-03T10:58:05.766816","MEAN_MOTION":5.00115945,"ECCENTRICITY":0.00026432,"INCLINATION":0.056,"RA_OF_ASC_NODE":359.7796,"ARG_OF_PERICENTER":337.6957,"MEAN_ANOMALY":22.5061,"EPHEMERIS_TYPE":0,"CLASSIFICATION_TYPE":"U","NORAD_CAT_ID":40350,"ELEMENT_SET_NO":999,"REV_AT_EPOCH":20463,"BSTAR":0,"MEAN_MOTION_DOT":-2.8e-7,"MEAN_MOTION_DDOT":0},{"OBJECT_NAME":"O3B FM9","OBJECT_ID":"2014-083D","EPOCH":"2026-03-06T21:10:03.036576","MEAN_MOTION":5.00115924,"ECCENTRICITY":0.0002732,"INCLINATION":0.0579,"RA_OF_ASC_NODE":0.6785,"ARG_OF_PERICENTER":343.7503,"MEAN_ANOMALY":15.5577,"EPHEMERIS_TYPE":0,"CLASSIFICATION_TYPE":"U","NORAD_CAT_ID":40351,"ELEMENT_SET_NO":999,"REV_AT_EPOCH":20495,"BSTAR":0,"MEAN_MOTION_DOT":-2.6e-7,"MEAN_MOTION_DDOT":0},{"OBJECT_NAME":"ASTRA 2G","OBJECT_ID":"2014-089A","EPOCH":"2026-03-07T03:47:03.755040","MEAN_MOTION":1.00271899,"ECCENTRICITY":0.0004111,"INCLINATION":0.0549,"RA_OF_ASC_NODE":329.008,"ARG_OF_PERICENTER":62.675,"MEAN_ANOMALY":218.1241,"EPHEMERIS_TYPE":0,"CLASSIFICATION_TYPE":"U","NORAD_CAT_ID":40364,"ELEMENT_SET_NO":999,"REV_AT_EPOCH":4094,"BSTAR":0,"MEAN_MOTION_DOT":1.47e-6,"MEAN_MOTION_DDOT":0},{"OBJECT_NAME":"SES-9","OBJECT_ID":"2016-013A","EPOCH":"2026-03-07T00:44:28.762944","MEAN_MOTION":1.00271287,"ECCENTRICITY":0.0001591,"INCLINATION":0.0414,"RA_OF_ASC_NODE":309.9608,"ARG_OF_PERICENTER":91.1075,"MEAN_ANOMALY":243.0757,"EPHEMERIS_TYPE":0,"CLASSIFICATION_TYPE":"U","NORAD_CAT_ID":41380,"ELEMENT_SET_NO":999,"REV_AT_EPOCH":3641,"BSTAR":0,"MEAN_MOTION_DOT":-3.48e-6,"MEAN_MOTION_DDOT":0},{"OBJECT_NAME":"SES-10","OBJECT_ID":"2017-017A","EPOCH":"2026-03-07T02:42:38.530944","MEAN_MOTION":1.00271716,"ECCENTRICITY":0.0002629,"INCLINATION":0.0214,"RA_OF_ASC_NODE":75.2424,"ARG_OF_PERICENTER":279.2403,"MEAN_ANOMALY":144.0905,"EPHEMERIS_TYPE":0,"CLASSIFICATION_TYPE":"U","NORAD_CAT_ID":42432,"ELEMENT_SET_NO":999,"REV_AT_EPOCH":3273,"BSTAR":0,"MEAN_MOTION_DOT":-2.75e-6,"MEAN_MOTION_DDOT":0},{"OBJECT_NAME":"SES-15","OBJECT_ID":"2017-026A","EPOCH":"2026-03-07T03:30:38.669760","MEAN_MOTION":1.00273335,"ECCENTRICITY":0.0001005,"INCLINATION":0.0446,"RA_OF_ASC_NODE":333.643,"ARG_OF_PERICENTER":26.6136,"MEAN_ANOMALY":88.0888,"EPHEMERIS_TYPE":0,"CLASSIFICATION_TYPE":"U","NORAD_CAT_ID":42709,"ELEMENT_SET_NO":999,"REV_AT_EPOCH":640,"BSTAR":0,"MEAN_MOTION_DOT":5.7e-7,"MEAN_MOTION_DDOT":0},{"OBJECT_NAME":"SES-11 (ECHOSTAR 105)","OBJECT_ID":"2017-063A","EPOCH":"2026-03-07T03:06:38.820672","MEAN_MOTION":1.00272735,"ECCENTRICITY":0.0002624,"INCLINATION":0.0276,"RA_OF_ASC_NODE":64.5239,"ARG_OF_PERICENTER":279.8065,"MEAN_ANOMALY":122.229,"EPHEMERIS_TYPE":0,"CLASSIFICATION_TYPE":"U","NORAD_CAT_ID":42967,"ELEMENT_SET_NO":999,"REV_AT_EPOCH":3070,"BSTAR":0,"MEAN_MOTION_DOT":-9.2e-7,"MEAN_MOTION_DDOT":0},{"OBJECT_NAME":"SES-14","OBJECT_ID":"2018-012B","EPOCH":"2026-03-07T00:00:03.022272","MEAN_MOTION":1.00270381,"ECCENTRICITY":0.0001039,"INCLINATION":0.0192,"RA_OF_ASC_NODE":99.7422,"ARG_OF_PERICENTER":253.5098,"MEAN_ANOMALY":123.959,"EPHEMERIS_TYPE":0,"CLASSIFICATION_TYPE":"U","NORAD_CAT_ID":43175,"ELEMENT_SET_NO":999,"REV_AT_EPOCH":600,"BSTAR":0,"MEAN_MOTION_DOT":-2.81e-6,"MEAN_MOTION_DDOT":0},{"OBJECT_NAME":"O3B FM15","OBJECT_ID":"2018-024A","EPOCH":"2026-03-06T22:46:11.428032","MEAN_MOTION":5.0011572,"ECCENTRICITY":0.0002685,"INCLINATION":0.0487,"RA_OF_ASC_NODE":0.8766,"ARG_OF_PERICENTER":341.1215,"MEAN_ANOMALY":17.9873,"EPHEMERIS_TYPE":0,"CLASSIFICATION_TYPE":"U","NORAD_CAT_ID":43231,"ELEMENT_SET_NO":999,"REV_AT_EPOCH":14591,"BSTAR":0,"MEAN_MOTION_DOT":-2.6e-7,"MEAN_MOTION_DDOT":0},{"OBJECT_NAME":"O3B FM16","OBJECT_ID":"2018-024B","EPOCH":"2026-03-06T04:50:14.394336","MEAN_MOTION":5.00115882,"ECCENTRICITY":0.00028278,"INCLINATION":0.045,"RA_OF_ASC_NODE":2.8168,"ARG_OF_PERICENTER":339.2721,"MEAN_ANOMALY":17.8957,"EPHEMERIS_TYPE":0,"CLASSIFICATION_TYPE":"U","NORAD_CAT_ID":43232,"ELEMENT_SET_NO":999,"REV_AT_EPOCH":14579,"BSTAR":0,"MEAN_MOTION_DOT":-2.6e-7,"MEAN_MOTION_DDOT":0},{"OBJECT_NAME":"O3B FM14","OBJECT_ID":"2018-024C","EPOCH":"2026-03-06T20:12:27.204192","MEAN_MOTION":5.0011567,"ECCENTRICITY":0.0002845,"INCLINATION":0.0435,"RA_OF_ASC_NODE":1.8148,"ARG_OF_PERICENTER":344.5803,"MEAN_ANOMALY":13.5921,"EPHEMERIS_TYPE":0,"CLASSIFICATION_TYPE":"U","NORAD_CAT_ID":43233,"ELEMENT_SET_NO":999,"REV_AT_EPOCH":14583,"BSTAR":0,"MEAN_MOTION_DOT":-2.6e-7,"MEAN_MOTION_DDOT":0},{"OBJECT_NAME":"O3B FM13","OBJECT_ID":"2018-024D","EPOCH":"2026-03-03T02:38:16.342368","MEAN_MOTION":5.00115687,"ECCENTRICITY":0.00042952,"INCLINATION":0.0485,"RA_OF_ASC_NODE":331.6373,"ARG_OF_PERICENTER":331.6147,"MEAN_ANOMALY":56.6997,"EPHEMERIS_TYPE":0,"CLASSIFICATION_TYPE":"U","NORAD_CAT_ID":43234,"ELEMENT_SET_NO":999,"REV_AT_EPOCH":14574,"BSTAR":0,"MEAN_MOTION_DOT":-2.8e-7,"MEAN_MOTION_DDOT":0},{"OBJECT_NAME":"SES-12","OBJECT_ID":"2018-049A","EPOCH":"2026-03-07T00:40:44.121216","MEAN_MOTION":1.00270171,"ECCENTRICITY":0.0001821,"INCLINATION":0.018,"RA_OF_ASC_NODE":84.2897,"ARG_OF_PERICENTER":220.4205,"MEAN_ANOMALY":325.1972,"EPHEMERIS_TYPE":0,"CLASSIFICATION_TYPE":"U","NORAD_CAT_ID":43488,"ELEMENT_SET_NO":999,"REV_AT_EPOCH":2839,"BSTAR":0,"MEAN_MOTION_DOT":-2.72e-6,"MEAN_MOTION_DDOT":0},{"OBJECT_NAME":"O3B FM20","OBJECT_ID":"2019-020A","EPOCH":"2026-03-06T06:26:23.797536","MEAN_MOTION":5.00115505,"ECCENTRICITY":0.00027999,"INCLINATION":0.0518,"RA_OF_ASC_NODE":359.6916,"ARG_OF_PERICENTER":333.6749,"MEAN_ANOMALY":26.6137,"EPHEMERIS_TYPE":0,"CLASSIFICATION_TYPE":"U","NORAD_CAT_ID":44112,"ELEMENT_SET_NO":999,"REV_AT_EPOCH":12642,"BSTAR":0,"MEAN_MOTION_DOT":-2.6e-7,"MEAN_MOTION_DDOT":0},{"OBJECT_NAME":"O3B FM19","OBJECT_ID":"2019-020B","EPOCH":"2026-03-06T21:28:58.608192","MEAN_MOTION":5.00115814,"ECCENTRICITY":0.0004312,"INCLINATION":0.0567,"RA_OF_ASC_NODE":352.2118,"ARG_OF_PERICENTER":343.732,"MEAN_ANOMALY":24.0309,"EPHEMERIS_TYPE":0,"CLASSIFICATION_TYPE":"U","NORAD_CAT_ID":44113,"ELEMENT_SET_NO":999,"REV_AT_EPOCH":12632,"BSTAR":0,"MEAN_MOTION_DOT":-2.6e-7,"MEAN_MOTION_DDOT":0}]
